[{"OBJECT_NAME":"NORSAT 3","OBJECT_ID":"2021-034E","EPOCH":"2026-03-09T22:23:32.431200","MEAN_MOTION":15.04338407,"ECCENTRICITY":0.0005858,"INCLINATION":97.5427,"RA_OF_ASC_NODE":128.5959,"ARG_OF_PERICENTER":280.8366,"MEAN_ANOMALY":79.2201,"EPHEMERIS_TYPE":0,"CLASSIFICATION_TYPE":"U","NORAD_CAT_ID":48272,"ELEMENT_SET_NO":999,"REV_AT_EPOCH":26491,"BSTAR":0.00030361478,"MEAN_MOTION_DOT":4.174e-5,"MEAN_MOTION_DDOT":0},{"OBJECT_NAME":"STARLINK-34742","OBJECT_ID":"2025-158L","EPOCH":"2026-03-09T14:02:40.949952","MEAN_MOTION":15.05647543,"ECCENTRICITY":0.0001681,"INCLINATION":97.602,"RA_OF_ASC_NODE":294.03,"ARG_OF_PERICENTER":73.6791,"MEAN_ANOMALY":286.4621,"EPHEMERIS_TYPE":0,"CLASSIFICATION_TYPE":"U","NORAD_CAT_ID":64942,"ELEMENT_SET_NO":999,"REV_AT_EPOCH":3534,"BSTAR":7.4236e-5,"MEAN_MOTION_DOT":1.01e-5,"MEAN_MOTION_DDOT":0}]
